{
  "type": "FeatureCollection",
  "features": [
    {
      "type": "Feature",
      "properties": {
        "norad_id": 41556,
        "name": "ZIYUAN 3-2 (ZY 3-2)",
        "group": "resource",
        "lat": -58.53956395793807,
        "lon": -141.04676347379,
        "alt_km": 503.46984160838474,
        "timestamp": "2025-12-02T21:34:00.930467+00:00",
        "meta_object_name": "ZIYUAN 3-2 (ZY 3-2)",
        "meta_object_id": "2016-033A",
        "meta_epoch": "2025-12-02T12:37:26.393088",
        "meta_mean_motion": 15.21267181,
        "meta_eccentricity": 0.0012433,
        "meta_inclination": 97.4061,
        "meta_ra_of_asc_node": 50.8612,
        "meta_arg_of_pericenter": 289.0473,
        "meta_mean_anomaly": 70.9416,
        "meta_ephemeris_type": 0,
        "meta_classification_type": "U",
        "meta_norad_cat_id": 41556,
        "meta_element_set_no": 999,
        "meta_rev_at_epoch": 52808,
        "meta_bstar": 0.00039924,
        "meta_mean_motion_dot": 8.874e-05,
        "meta_mean_motion_ddot": 0,
        "tle_line1": "1 41556U 16033A   25336.52599992  .00008874  00000+0  39924-3 0  9999",
        "tle_line2": "2 41556  97.4061  50.8612 0012433 289.0473  70.9416 15.21267181528082"
      },
      "geometry": {
        "type": "Point",
        "coordinates": [
          -141.04676347379,
          -58.53956395793807
        ]
      }
    },
    {
      "type": "Feature",
      "properties": {
        "norad_id": 41599,
        "name": "CARTOSAT-2C",
        "group": "resource",
        "lat": -77.65143916241546,
        "lon": 177.3861572053593,
        "alt_km": 523.0360295881273,
        "timestamp": "2025-12-02T21:34:00.930477+00:00",
        "meta_object_name": "CARTOSAT-2C",
        "meta_object_id": "2016-040A",
        "meta_epoch": "2025-12-02T15:40:59.894400",
        "meta_mean_motion": 15.19131349,
        "meta_eccentricity": 0.0010871,
        "meta_inclination": 97.4772,
        "meta_ra_of_asc_node": 34.0086,
        "meta_arg_of_pericenter": 96.3433,
        "meta_mean_anomaly": 263.904,
        "meta_ephemeris_type": 0,
        "meta_classification_type": "U",
        "meta_norad_cat_id": 41599,
        "meta_element_set_no": 999,
        "meta_rev_at_epoch": 52387,
        "meta_bstar": 3.0691e-05,
        "meta_mean_motion_dot": 5.77e-06,
        "meta_mean_motion_ddot": 0,
        "tle_line1": "1 41599U 16040A   25336.65347100  .00000577  00000+0  30691-4 0  9995",
        "tle_line2": "2 41599  97.4772  34.0086 0010871  96.3433 263.9040 15.19131349523878"
      },
      "geometry": {
        "type": "Point",
        "coordinates": [
          177.3861572053593,
          -77.65143916241546
        ]
      }
    },
    {
      "type": "Feature",
      "properties": {
        "norad_id": 41601,
        "name": "SKYSAT-C1",
        "group": "resource",
        "lat": -27.457111448688607,
        "lon": -169.18323657384593,
        "alt_km": 477.1159864049059,
        "timestamp": "2025-12-02T21:34:00.930487+00:00",
        "meta_object_name": "SKYSAT-C1",
        "meta_object_id": "2016-040C",
        "meta_epoch": "2025-12-02T01:51:22.944960",
        "meta_mean_motion": 15.32287703,
        "meta_eccentricity": 0.00034131,
        "meta_inclination": 96.9847,
        "meta_ra_of_asc_node": 13.6943,
        "meta_arg_of_pericenter": 41.9438,
        "meta_mean_anomaly": 318.2066,
        "meta_ephemeris_type": 0,
        "meta_classification_type": "U",
        "meta_norad_cat_id": 41601,
        "meta_element_set_no": 999,
        "meta_rev_at_epoch": 52764,
        "meta_bstar": 0.00034358842,
        "meta_mean_motion_dot": 0.00010645,
        "meta_mean_motion_ddot": 0,
        "tle_line1": "1 41601U 16040C   25336.07734890  .00010645  00000+0  34359-3 0  9992",
        "tle_line2": "2 41601  96.9847  13.6943 0003413  41.9438 318.2066 15.32287703527641"
      },
      "geometry": {
        "type": "Point",
        "coordinates": [
          -169.18323657384593,
          -27.457111448688607
        ]
      }
    },
    {
      "type": "Feature",
      "properties": {
        "norad_id": 41603,
        "name": "LAPAN-A3",
        "group": "resource",
        "lat": 24.925593022047654,
        "lon": -28.526299019359953,
        "alt_km": 463.7003063290467,
        "timestamp": "2025-12-02T21:34:00.930497+00:00",
        "meta_object_name": "LAPAN-A3",
        "meta_object_id": "2016-040E",
        "meta_epoch": "2025-12-02T13:37:00.628032",
        "meta_mean_motion": 15.31425512,
        "meta_eccentricity": 0.0010951,
        "meta_inclination": 97.1423,
        "meta_ra_of_asc_node": 334.4953,
        "meta_arg_of_pericenter": 11.1557,
        "meta_mean_anomaly": 348.9926,
        "meta_ephemeris_type": 0,
        "meta_classification_type": "U",
        "meta_norad_cat_id": 41603,
        "meta_element_set_no": 999,
        "meta_rev_at_epoch": 52470,
        "meta_bstar": 0.00016888,
        "meta_mean_motion_dot": 5.06e-05,
        "meta_mean_motion_ddot": 0,
        "tle_line1": "1 41603U 16040E   25336.56736838  .00005060  00000+0  16888-3 0  9994",
        "tle_line2": "2 41603  97.1423 334.4953 0010951  11.1557 348.9926 15.31425512524707"
      },
      "geometry": {
        "type": "Point",
        "coordinates": [
          -28.526299019359953,
          24.925593022047654
        ]
      }
    },
    {
      "type": "Feature",
      "properties": {
        "norad_id": 41604,
        "name": "BIROS",
        "group": "resource",
        "lat": 21.01346533505015,
        "lon": 5.233780534731713,
        "alt_km": 316.01356134653906,
        "timestamp": "2025-12-02T21:34:00.930508+00:00",
        "meta_object_name": "BIROS",
        "meta_object_id": "2016-040F",
        "meta_epoch": "2025-12-02T07:50:45.170016",
        "meta_mean_motion": 15.85502902,
        "meta_eccentricity": 0.0002525,
        "meta_inclination": 97.0713,
        "meta_ra_of_asc_node": 7.3756,
        "meta_arg_of_pericenter": 175.1949,
        "meta_mean_anomaly": 184.9346,
        "meta_ephemeris_type": 0,
        "meta_classification_type": "U",
        "meta_norad_cat_id": 41604,
        "meta_element_set_no": 999,
        "meta_rev_at_epoch": 52707,
        "meta_bstar": 0.00067496,
        "meta_mean_motion_dot": 0.0016384,
        "meta_mean_motion_ddot": 0,
        "tle_line1": "1 41604U 16040F   25336.32691169  .00163840  00000+0  67496-3 0  9998",
        "tle_line2": "2 41604  97.0713   7.3756 0002525 175.1949 184.9346 15.85502902527075"
      },
      "geometry": {
        "type": "Point",
        "coordinates": [
          5.233780534731713,
          21.01346533505015
        ]
      }
    },
    {
      "type": "Feature",
      "properties": {
        "norad_id": 41727,
        "name": "GAOFEN-3",
        "group": "resource",
        "lat": 76.86424086277798,
        "lon": -56.675897417909624,
        "alt_km": 742.7592950490362,
        "timestamp": "2025-12-02T21:34:00.930518+00:00",
        "meta_object_name": "GAOFEN-3",
        "meta_object_id": "2016-049A",
        "meta_epoch": "2025-12-02T12:52:21.587808",
        "meta_mean_motion": 14.42209634,
        "meta_eccentricity": 0.0001695,
        "meta_inclination": 98.4044,
        "meta_ra_of_asc_node": 342.2777,
        "meta_arg_of_pericenter": 71.3217,
        "meta_mean_anomaly": 288.8157,
        "meta_ephemeris_type": 0,
        "meta_classification_type": "U",
        "meta_norad_cat_id": 41727,
        "meta_element_set_no": 999,
        "meta_rev_at_epoch": 49030,
        "meta_bstar": 5.2956e-05,
        "meta_mean_motion_dot": 1.31e-06,
        "meta_mean_motion_ddot": 0,
        "tle_line1": "1 41727U 16049A   25336.53636097  .00000131  00000+0  52956-4 0  9994",
        "tle_line2": "2 41727  98.4044 342.2777 0001695  71.3217 288.8157 14.42209634490306"
      },
      "geometry": {
        "type": "Point",
        "coordinates": [
          -56.675897417909624,
          76.86424086277798
        ]
      }
    },
    {
      "type": "Feature",
      "properties": {
        "norad_id": 41771,
        "name": "SKYSAT-C4",
        "group": "resource",
        "lat": 15.952428188918379,
        "lon": -175.43645801649538,
        "alt_km": 441.33146895417667,
        "timestamp": "2025-12-02T21:34:00.930528+00:00",
        "meta_object_name": "SKYSAT-C4",
        "meta_object_id": "2016-058B",
        "meta_epoch": "2025-12-02T08:23:51.372096",
        "meta_mean_motion": 15.41794235,
        "meta_eccentricity": 6.79e-05,
        "meta_inclination": 96.939,
        "meta_ra_of_asc_node": 2.0466,
        "meta_arg_of_pericenter": 109.7993,
        "meta_mean_anomaly": 250.3328,
        "meta_ephemeris_type": 0,
        "meta_classification_type": "U",
        "meta_norad_cat_id": 41771,
        "meta_element_set_no": 999,
        "meta_rev_at_epoch": 51507,
        "meta_bstar": 0.00041184,
        "meta_mean_motion_dot": 0.00017372,
        "meta_mean_motion_ddot": 0,
        "tle_line1": "1 41771U 16058B   25336.34990014  .00017372  00000+0  41184-3 0  9999",
        "tle_line2": "2 41771  96.9390   2.0466 0000679 109.7993 250.3328 15.41794235515078"
      },
      "geometry": {
        "type": "Point",
        "coordinates": [
          -175.43645801649538,
          15.952428188918379
        ]
      }
    }
  ]
}